"","X.1","X","H","diameter","albedo","rot_per","diameter_sigma","epoch","e","a","q","i","om","w","ma","ad","n","tp","per","moid","moid_jup","t_jup","sigma_e","sigma_a","sigma_q","sigma_i","sigma_om","sigma_w","sigma_ma","sigma_ad","sigma_n","sigma_tp","sigma_per","rms","neo_flag","pha_flag","class_var"
"956",969,5141,12.8,6.15,0.388,3.803,0.24,2458600.5,0.276352068386994,2.53917472770826,1.8374685397101,6.2900185203005,205.335219386252,192.847520973739,26.5455015469326,3.24088091570641,0.243593218448002,2458491.52528504,1477.87365466763,0.84487,2.18618,3.384,5.5527e-08,7.9349e-09,1.4481e-07,4.9028e-06,2.6375e-05,2.7421e-05,8.3817e-06,1.0128e-08,1.1418e-09,3.4015e-05,6.9275e-06,0.48132,0,0,"S"
"957",971,5183,13.7,4.075,0.352,15.642,0.262,2458600.5,0.0330377477118987,2.15635930176418,2.08511804717629,4.0003353581389,331.994956088339,193.97456380161,188.236480850168,2.22760055635208,0.311259334164441,2459152.33411483,1156.59182066427,1.09221,2.74194,3.697,4.1777e-08,8.2322e-09,8.9641e-08,4.6896e-06,5.6011e-05,8.4812e-05,6.3851e-05,8.5042e-09,1.7824e-09,0.00020544,6.6232e-06,0.48986,0,0,"S"
"961",975,5229,13.2,5.681,0.288,89.3,1.424,2458600.5,0.373536025791147,2.40052687181463,1.50384360431214,20.6732323152076,195.300530230447,266.255032850257,164.422296289937,3.29721013931712,0.264998988398934,2457980.03613603,1358.49575190849,0.676054,2.39545,3.347,3.5647e-08,1.0384e-08,8.3835e-08,4.5849e-06,1.1105e-05,1.2786e-05,9.777e-06,1.4263e-08,1.7195e-09,3.4731e-05,8.8149e-06,0.50922,0,0,"S"
"963",977,5239,12.5,7.021,0.393,5.673,0.152,2458600.5,0.101005967866725,2.38218432189313,2.14156948882337,5.61526006117063,241.932798291049,186.591872903544,271.316914622185,2.62279915496288,0.268065565978206,2458931.32609866,1342.95502925306,1.15539,2.62277,3.524,3.3084e-08,9.2011e-09,7.8313e-08,3.6078e-06,3.8124e-05,4.2548e-05,2.0042e-05,1.0131e-08,1.5531e-09,7.5462e-05,7.7807e-06,0.46753,0,0,"V"
"964",978,5252,14.3,2.449,0.528,3.053,0.409,2458600.5,0.224652210446914,1.97399134181209,1.53052982347093,28.7735990701345,71.2684688669018,69.2485937957031,339.194107618828,2.41745286015324,0.355374456663364,2458659.04639238,1013.0159701968,0.68191,3.03039,3.688,5.5476e-08,7.6946e-09,1.0814e-07,1.0728e-05,1.5449e-05,3.0569e-05,2.672e-05,9.4232e-09,2.0779e-09,7.5379e-05,5.9231e-06,0.50264,0,0,"S"
"965",979,5260,16.1,1.878,0.182,2.6902,0.231,2458600.5,0.0646906899322201,1.52353759054747,1.42497889267728,20.2829885364881,245.04257892046,95.5536389567812,54.1362539011081,1.62209628841766,0.524112252637783,2458497.20866569,686.875756458985,0.49812,3.52631,4.428,4.6473e-08,3.8485e-09,6.9798e-08,5.2302e-06,1.3939e-05,5.161e-05,5.3805e-05,4.0974e-09,1.9859e-09,0.0001024,2.6026e-06,0.44384,0,0,"S"
"967",981,5317,13.5,6.267,0.215,8.062,0.116,2458600.5,0.132536670231406,2.28990822468768,1.98641141345206,3.30976467078159,107.631400074266,54.447601692272,336.325106900899,2.59340503592329,0.284431019820614,2458683.73597445,1265.68473518481,0.997354,2.38566,3.585,4.3162e-08,7.4381e-09,9.8228e-08,3.5448e-06,7.9121e-05,8.0144e-05,1.3907e-05,8.4239e-09,1.3858e-09,4.9019e-05,6.1668e-06,0.50051,0,0,"S"
"972",986,5396,12.7,11.455,0.101,54.048,0.141,2458600.5,0.186236482621145,2.52946584794933,2.05838702551693,12.393387591,218.506350513734,138.943533779767,240.708736458545,3.00054467038172,0.244997043630445,2459087.40899194,1469.40548614548,1.07229,2.52638,3.395,5.1712e-08,9.3721e-09,1.3103e-07,5.5048e-06,1.6003e-05,1.9121e-05,1.0284e-05,1.1117e-08,1.3616e-09,4.2899e-05,8.1666e-06,0.47288,0,0,"S"
"973",987,5400,12.1,9.56,0.299,3.949,0.2,2458600.5,0.150923720435451,2.79560091411797,2.37367842330654,10.065725173552,46.916358826269,14.8130395522842,256.735989566394,3.2175234049294,0.210858597329129,2459090.23108871,1707.30529634548,1.38731,2.14606,3.288,3.5487e-08,1.1867e-08,9.9984e-08,3.8934e-06,2.0562e-05,2.4057e-05,1.2449e-05,1.3658e-08,1.3426e-09,6.0163e-05,1.0871e-05,0.49355,0,0,"S"
"975",989,5447,12.8,6.406,0.272,2.9546,0.064,2458600.5,0.144599255926796,2.22165705096725,1.90040709447286,4.84161166602374,321.168685882672,206.305125416363,230.600683632318,2.54290700746163,0.297638114650923,2459035.25385039,1209.52251166561,0.909346,2.43986,3.631,4.3218e-08,6.3227e-09,9.5369e-08,4.1647e-06,4.227e-05,4.3509e-05,1.067e-05,7.2369e-09,1.2706e-09,3.6467e-05,5.1633e-06,0.41996,0,0,"S"
"978",992,5509,13.5,4.314,0.381,3.2,0.504,2458600.5,0.244407931966176,2.19050683235826,1.6551295875038,5.68465998498837,109.22396309092,234.735180759947,157.784292010119,2.72588407721272,0.304009500438999,2458081.4889435,1184.17351918328,0.654182,2.68836,3.628,4.5714e-08,5.8271e-09,1.0018e-07,3.4637e-06,4.369e-05,4.4103e-05,6.4657e-06,7.2513e-09,1.2131e-09,2.0574e-05,4.7252e-06,0.51321,0,0,"S"
"980",994,5621,12.1,9.667,0.328,3.6785,0.187,2458600.5,0.169398113978065,2.80393061244595,2.32895005497225,8.09319524751965,277.263110462425,53.2374027800669,65.0110621076002,3.27891116991966,0.209919692092444,2458290.80508067,1714.94153984117,1.32745,2.09131,3.288,4.3882e-08,1.3075e-08,1.2392e-07,3.9793e-06,3.2639e-05,3.443e-05,1.1231e-05,1.529e-08,1.4683e-09,5.3471e-05,1.1996e-05,0.44119,0,0,"S"
"982",996,5646,12.2,8.61,0.297,6.144,0.229,2458600.5,0.268200627930459,2.4268658421315,1.77597889936885,21.9270055503116,240.197403855702,227.873521981745,140.192252351,3.07775278489415,0.260696631905922,2458062.73987887,1380.91542406238,0.847877,2.34496,3.365,5.1519e-08,1.1953e-08,1.2195e-07,5.2716e-06,1.495e-05,1.744e-05,1.038e-05,1.5159e-08,1.926e-09,3.8904e-05,1.0202e-05,0.38543,0,0,"S"
"984",998,5689,13.1,5.791,0.208,5,1.075,2458600.5,0.380217197826511,2.7996994779596,1.73520558769346,29.0080893067626,0.811147980471414,81.9328314200577,332.977566850156,3.86419336822575,0.210395743513641,2458728.93621595,1711.06123150566,0.963948,2.34355,3.045,5.263e-08,1.8647e-08,1.5097e-07,8.9063e-06,1.2632e-05,1.6263e-05,1.3773e-05,2.5738e-08,2.102e-09,6.6402e-05,1.7095e-05,0.4866,0,0,"B"
"987",1001,6070,12.1,9.586,0.306,4.437,0.167,2458600.5,0.110929662003284,2.7071629505175,2.40685827942878,11.732150687672,152.452942526808,277.178719332712,93.7918062234468,3.00746762160622,0.22127506512926,2458176.63025142,1626.93433076024,1.455,2.2753,3.326,4.1561e-08,1.428e-08,1.1412e-07,4.7639e-06,2.4014e-05,3.2788e-05,2.2096e-05,1.5864e-08,1.7508e-09,9.9948e-05,1.2873e-05,0.47394,0,0,"S"
"993",1008,6499,12.6,9.487,0.151,5.4,2.081,2458600.5,0.41727502027286,2.75485288623572,1.60532159228296,29.3205933508417,186.106789695041,255.472514175519,310.876142013115,3.90438418018848,0.215554183579012,2458828.39563706,1670.11372278952,0.818484,2.36282,3.042,3.3187e-08,1.5553e-08,9.0795e-08,5.9111e-06,8.1574e-06,1.165e-05,1.2202e-05,2.2043e-08,1.8255e-09,5.8063e-05,1.4144e-05,0.49712,0,0,"B"
"996",1011,7481,16.8,1.052,0.277,2.5999,0.303,2458600.5,0.328238682738384,1.34624004260304,0.904351984369352,33.486717552566,117.885478988914,47.6335663460571,66.0773802927923,1.78812810083673,0.630986863506442,2458495.7793091,570.53485709584,0.000166385,3.37294,4.667,4.0383e-08,2.8058e-09,5.3243e-08,1.2359e-05,2.296e-06,1.2666e-05,1.9731e-05,3.7268e-09,1.9726e-09,3.0956e-05,1.7837e-06,0.53213,1,1,"S"
"997",1012,7563,12.8,8.533,0.221,30.58,0.361,2458600.5,0.204922412368745,2.76452190417083,2.1980094065219,10.8660929995925,157.067065327647,350.550589878638,271.442708396116,3.33103440181975,0.214424309832573,2459013.50024084,1678.91411324162,1.2106,1.68124,3.283,4.0017e-08,1.0936e-08,1.0969e-07,4.973e-06,2.0435e-05,2.3092e-05,1.1717e-05,1.3176e-08,1.2723e-09,5.5861e-05,9.9619e-06,0.45913,0,0,"S"
"998",1013,7727,12.7,6.495,0.419,11.8,0.169,2458600.5,0.109220416272193,2.79513769869033,2.48985159570127,3.40319027239225,346.047830279203,6.66900549280344,121.315519434011,3.10042380167938,0.210911015320148,2458025.30235444,1706.88097752289,1.48347,2.30672,3.316,5.0683e-08,1.3891e-08,1.4389e-07,5.6142e-06,6.0989e-05,6.328e-05,1.6372e-05,1.5408e-08,1.5722e-09,7.7671e-05,1.2724e-05,0.48544,0,0,"S"
"1002",1018,10114,17,0.938,0.28,7.319,0.294,2458600.5,0.324824272767099,1.24844118753695,0.842917186702765,15.3207262377359,8.91822061008716,233.649313030418,111.419174321934,1.65396518837113,0.706564708876466,2458442.80860539,509.50747394736,0.0456965,3.40444,5.061,2.0904e-08,1.3889e-09,2.5506e-08,5.4708e-06,1.0529e-05,1.2824e-05,1.063e-05,1.84e-09,1.1791e-09,1.4802e-05,8.5024e-07,0.47368,1,1,"S"
"1003",1020,10472,13.6,7.984,0.114,3.749,1.069,2458600.5,0.0932156353538424,2.71686557293009,2.46361122237843,2.11523420358824,210.686856262449,132.261535762973,20.6574493957313,2.97011992348175,0.220090779204543,2458506.64123195,1635.68869764158,1.45531,2.36738,3.353,4.1036e-08,1.3654e-08,1.1248e-07,4.3796e-06,0.00010121,0.00010313,2.0547e-05,1.4927e-08,1.6592e-09,9.3203e-05,1.2331e-05,0.49973,0,0,"K"
"1004",1021,10503,13.2,6.959,0.21,2.951,0.334,2458600.5,0.16307988376202,2.76227260980993,2.31180151368311,5.74404609784994,55.0451695424975,319.772994703103,326.122864149219,3.21274370593674,0.214686268894706,2458758.29833533,1676.8655110242,1.31602,2.25219,3.314,3.8797e-08,1.5641e-08,1.0972e-07,3.8302e-06,4.914e-05,5.11e-05,1.5677e-05,1.8192e-08,1.8235e-09,7.3599e-05,1.4243e-05,0.52668,0,0,"S"
"1005",1022,11065,15.2,2.778,0.19,8.4958,0.115,2458600.5,0.375274133515888,1.3915793772794,0.869355632252294,36.8778687332931,349.235743111009,22.0037335005896,314.329298886449,1.91380312230651,0.600401955206114,2458676.56687606,599.598313893589,0.118482,3.58136,4.506,3.1488e-08,3.4461e-09,4.3411e-08,1.1394e-05,6.3639e-06,1.153e-05,1.4731e-05,4.7394e-09,2.2303e-09,2.4797e-05,2.2273e-06,0.3717,1,1,"K"
"1006",1023,11397,16.3,1.316,0.318,38.6,0.349,2458600.5,0.388953331163497,1.72081090804636,1.05149577305925,15.0246606976643,144.791469128063,74.7034480645013,313.778839381564,2.39012604303347,0.436620726959398,2458706.36112331,824.514224294892,0.203252,2.69719,4.047,1.3465e-08,1.1536e-09,2.3364e-08,3.4331e-06,7.9054e-06,1.0052e-05,2.862e-06,1.6023e-09,4.3904e-10,6.5787e-06,8.2909e-07,0.38322,1,1,"S"
